{
  "56121": {
    "noradId": "56121",
    "tle": [
      "1 56121C 23046AE  25296.77895833  .00008061  00000+0  59480-3 0  2967",
      "2 56121  43.0013 170.3205 0001415 265.7820  44.2377 15.02528790    14"
    ]
  },
  "56122": {
    "noradId": "56122",
    "tle": [
      "1 56122C 23046AF  25296.77826389  .00004340  00000+0  32020-3 0  2965",
      "2 56122  43.0016 182.4923 0001328 262.6834  21.5823 15.02537491    15"
    ]
  },
  "56123": {
    "noradId": "56123",
    "tle": [
      "1 56123C 23046AG  25296.77756944  .00002357  00000+0  17387-3 0  2960",
      "2 56123  43.0015 170.1705 0001428 264.7917 103.8128 15.02541307    16"
    ]
  },
  "56124": {
    "noradId": "56124",
    "tle": [
      "1 56124C 23046AH  25296.77895833  .00010775  00000+0  79521-3 0  2963",
      "2 56124  43.0013 170.3335 0001440 257.7645  46.2697 15.02516382    16"
    ]
  },
  "56125": {
    "noradId": "56125",
    "tle": [
      "1 56125C 23046AJ  25296.77409722 -.00015281  00000+0 -11276-2 0  2963",
      "2 56125  43.0018 170.2294 0001222 272.7146  59.0676 15.02548076    10"
    ]
  },
  "56126": {
    "noradId": "56126",
    "tle": [
      "1 56126C 23046AK  25296.77895833  .00003300  00000+0  24345-3 0  2965",
      "2 56126  43.0012 170.1152 0001320 265.5513 128.6203 15.02534769    17"
    ]
  },
  "56127": {
    "noradId": "56127",
    "tle": [
      "1 56127C 23046AL  25296.77895833  .00007624  00000+0  56269-3 0  2969",
      "2 56127  43.0016 170.0133 0001322 265.9305 170.3417 15.02520084    11"
    ]
  },
  "56128": {
    "noradId": "56128",
    "tle": [
      "1 56128C 23046AM  25296.77687500 -.00002859  00000+0 -21098-3 0  2969",
      "2 56128  43.0015 170.2407 0001335 262.5664  72.2297 15.02536274    16"
    ]
  },
  "56129": {
    "noradId": "56129",
    "tle": [
      "1 56129C 23046AN  25296.78034722 -.00000503  00000+0 -37142-4 0  2965",
      "2 56129  43.0017 118.1707 0001364 268.2806 151.8215 15.02527896    10"
    ]
  },
  "56130": {
    "noradId": "56130",
    "tle": [
      "1 56130C 23046AP  25296.77687500  .00010824  00000+0  79884-3 0  2967",
      "2 56130  43.0013 170.0876 0001301 266.9802 133.9046 15.02514960    15"
    ]
  },
  "56131": {
    "noradId": "56131",
    "tle": [
      "1 56131C 23046AQ  25296.77548611  .00004032  00000+0  29749-3 0  2966",
      "2 56131  43.0015 169.9020 0001304 267.1460 204.3922 15.02534750    17"
    ]
  },
  "56132": {
    "noradId": "56132",
    "tle": [
      "1 56132C 23046AR  25296.78243056  .00019896  00000+0  14692-2 0  2967",
      "2 56132  43.0010 170.0116 0001409 275.4554 173.5686 15.02486063    11"
    ]
  },
  "56133": {
    "noradId": "56133",
    "tle": [
      "1 56133C 23046AS  25296.75951389  .00007035  00000+0  51905-3 0  2961",
      "2 56133  43.0013 169.8580 0001472 263.7562 175.3866 15.02530003    19"
    ]
  },
  "56134": {
    "noradId": "56134",
    "tle": [
      "1 56134C 23046AT  25296.76298611 -.00004799  00000+0 -35408-3 0  2961",
      "2 56134  43.0013 170.0736 0001375 269.1186  92.6513 15.02539979    12"
    ]
  },
  "56136": {
    "noradId": "56136",
    "tle": [
      "1 56136C 23046AV  25296.76090278  .00001376  00000+0  10149-3 0  2963",
      "2 56136  43.0018 170.0282 0000953 340.6099  33.9335 15.02534927    12"
    ]
  },
  "56137": {
    "noradId": "56137",
    "tle": [
      "1 56137C 23046AW  25296.76159722 -.00018472  00000+0 -13630-2 0  2968",
      "2 56137  43.0017 169.7325 0001377 271.6390 226.8701 15.02554692    14"
    ]
  },
  "56138": {
    "noradId": "56138",
    "tle": [
      "1 56138C 23046AX  25296.76298611  .00010079  00000+0  74385-3 0  2968",
      "2 56138  43.0013 169.9309 0001316 262.1801 159.7235 15.02519052    17"
    ]
  },
  "56140": {
    "noradId": "56140",
    "tle": [
      "1 56140C 23046AZ  25296.75743056  .00004314  00000+0  31825-3 0  2965",
      "2 56140  43.0013 169.9315 0001302 262.3959 141.3918 15.02538293    11"
    ]
  },
  "56141": {
    "noradId": "56141",
    "tle": [
      "1 56141C 23046BA  25296.76298611 -.00003109  00000+0 -22940-3 0  2960",
      "2 56141  43.0016 169.7097 0001725 269.0885 242.9640 15.02539324    17"
    ]
  },
  "56142": {
    "noradId": "56142",
    "tle": [
      "1 56142C 23046BB  25296.76090278  .00005146  00000+0  37967-3 0  2966",
      "2 56142  43.0016 169.8646 0001369 266.3688 174.2752 15.02534597    12"
    ]
  },
  "56143": {
    "noradId": "56143",
    "tle": [
      "1 56143C 23046BC  25296.76437500  .00006680  00000+0  49284-3 0  2969",
      "2 56143  43.0018 169.6333 0001417 265.0192 284.5997 15.02530279    15"
    ]
  },
  "56144": {
    "noradId": "56144",
    "tle": [
      "1 56144C 23046BD  25296.75743056  .00009943  00000+0  73378-3 0  2961",
      "2 56144  43.0012 169.8446 0001288 264.2674 175.6209 15.02520529    12"
    ]
  },
  "56146": {
    "noradId": "56146",
    "tle": [
      "1 56146C 23046BF  25296.75812500  .00005152  00000+0  38009-3 0  2964",
      "2 56146  43.0013 169.6942 0001391 260.5310 243.2315 15.02532572    16"
    ]
  },
  "56147": {
    "noradId": "56147",
    "tle": [
      "1 56147C 23046BG  25296.76298611  .00007781  00000+0  57369-3 0  2967",
      "2 56147  43.0014 131.7534 0001398 260.1803 138.8914 15.02558583    19"
    ]
  },
  "56148": {
    "noradId": "56148",
    "tle": [
      "1 56148C 23046BH  25296.76298611  .00005166  00000+0  38100-3 0  2965",
      "2 56148  43.0013 131.7983 0001323 252.3597 128.6183 15.02544759    13"
    ]
  },
  "56287": {
    "noradId": "56287",
    "tle": [
      "1 56287C 23056B   25296.78173611 -.00012336  00000+0 -91020-3 0  2963",
      "2 56287  43.0026 234.3604 0001332 267.2548 227.4966 15.02549416    14"
    ]
  },
  "56288": {
    "noradId": "56288",
    "tle": [
      "1 56288C 23056C   25296.78520833  .00019227  00000+0  14188-2 0  2969",
      "2 56288  43.0023 233.9310 0001327 258.2179  75.6471 15.02514175    13"
    ]
  },
  "56289": {
    "noradId": "56289",
    "tle": [
      "1 56289C 23056D   25296.78104167 -.00020738  00000+0 -15304-2 0  2960",
      "2 56289  43.0023 208.1891 0001333 272.9227 233.4131 15.02552062    10"
    ]
  },
  "56290": {
    "noradId": "56290",
    "tle": [
      "1 56290C 23056E   25296.77965278  .00021078  00000+0  15555-2 0  2963",
      "2 56290  43.0025 233.9194 0001293 270.3160  51.5134 15.02509307    15"
    ]
  },
  "56291": {
    "noradId": "56291",
    "tle": [
      "1 56291C 23056F   25296.78104167  .00020873  00000+0  15404-2 0  2962",
      "2 56291  43.0024 233.9890 0001343 269.0611  24.2224 15.02508913    19"
    ]
  },
  "56292": {
    "noradId": "56292",
    "tle": [
      "1 56292C 23056G   25296.78312500 -.00011052  00000+0 -81546-3 0  2967",
      "2 56292  43.0029 233.8463 0001345 265.6783  92.9558 15.02548392    11"
    ]
  },
  "56293": {
    "noradId": "56293",
    "tle": [
      "1 56293C 23056H   25296.78312500  .00020599  00000+0  15192-2 0  2965",
      "2 56293  43.0027 234.6065 0001377 241.6331 152.3908 15.02533162    14"
    ]
  },
  "56294": {
    "noradId": "56294",
    "tle": [
      "1 56294C 23056J   25296.77895833  .00076353  00000+0  56461-2 0  2963",
      "2 56294  43.0028 234.5271 0001310 236.4473 153.3195 15.02377363    18"
    ]
  },
  "56295": {
    "noradId": "56295",
    "tle": [
      "1 56295C 23056K   25296.78381944 -.00003655  00000+0 -26964-3 0  2961",
      "2 56295  43.0022 208.3302 0001376 258.5010 190.6738 15.02548912    18"
    ]
  },
  "56296": {
    "noradId": "56296",
    "tle": [
      "1 56296C 23056L   25296.78104167  .00013603  00000+0  10038-2 0  2968",
      "2 56296  43.0022 195.3111 0001291 268.5619 164.2958 15.02520426    15"
    ]
  },
  "56297": {
    "noradId": "56297",
    "tle": [
      "1 56297C 23056M   25296.77895833 -.00008589  00000+0 -63379-3 0  2961",
      "2 56297  43.0024 234.2685 0001321 269.8102 227.9621 15.02542057    10"
    ]
  },
  "56298": {
    "noradId": "56298",
    "tle": [
      "1 56298C 23056N   25296.78520833 -.00009929  00000+0 -73267-3 0  2964",
      "2 56298  43.0027 234.3227 0001445 269.3313 226.2304 15.02542949    13"
    ]
  },
  "56299": {
    "noradId": "56299",
    "tle": [
      "1 56299C 23056P   25296.77965278  .00018379  00000+0  13563-2 0  2969",
      "2 56299  43.0023 221.7911 0001385 268.1999  15.5683 15.02513412    12"
    ]
  },
  "56300": {
    "noradId": "56300",
    "tle": [
      "1 56300C 23056Q   25296.78034722 -.00014919  00000+0 -11008-2 0  2964",
      "2 56300  43.0026 233.8291 0001364 268.4178  93.2014 15.02550984    18"
    ]
  },
  "56301": {
    "noradId": "56301",
    "tle": [
      "1 56301C 23056R   25296.78243056 -.00005594  00000+0 -41276-3 0  2967",
      "2 56301  43.0025 234.1858 0001361 265.0233 305.5988 15.02539348    13"
    ]
  },
  "56302": {
    "noradId": "56302",
    "tle": [
      "1 56302C 23056S   25296.78312500 -.00016224  00000+0 -11970-2 0  2968",
      "2 56302  43.0023 234.0313 0001231 264.7567 345.7413 15.02555408    13"
    ]
  },
  "56304": {
    "noradId": "56304",
    "tle": [
      "1 56304C 23056U   25296.78034722  .00019325  00000+0  14263-2 0  2968",
      "2 56304  43.0023 233.9916 0001330 262.1337 351.3996 15.02507702    12"
    ]
  },
  "56305": {
    "noradId": "56305",
    "tle": [
      "1 56305C 23056V   25296.77965278 -.00011654  00000+0 -85989-3 0  2960",
      "2 56305  43.0025 233.9417 0001415 267.2342   0.5558 15.02547168    14"
    ]
  },
  "56306": {
    "noradId": "56306",
    "tle": [
      "1 56306C 23056W   25296.78034722 -.00012059  00000+0 -88981-3 0  2968",
      "2 56306  43.0024 234.0881 0001324 270.9693 306.4496 15.02547357    19"
    ]
  },
  "56317": {
    "noradId": "56317",
    "tle": [
      "1 56317C 23058A   25296.78034722  .00007696  00000+0  53426-3 0  2967",
      "2 56317  97.6012 296.2774 0002204  99.5875 357.1939 15.05650015    13"
    ]
  }
}